OBJECT_NAME,OBJECT_ID,EPOCH,MEAN_MOTION,ECCENTRICITY,INCLINATION,RA_OF_ASC_NODE,ARG_OF_PERICENTER,MEAN_ANOMALY,EPHEMERIS_TYPE,CLASSIFICATION_TYPE,NORAD_CAT_ID,ELEMENT_SET_NO,REV_AT_EPOCH,BSTAR,MEAN_MOTION_DOT,MEAN_MOTION_DDOT
INTELSAT 902 (IS-902),2001-039A,2026-06-09T06:00:38.892096,1.00272549,.00044264,6.0963,71.8806,4.4891,221.3211,0,U,26900,999,9061,0,-.268E-5,0
INTELSAT 904 (IS-904),2002-007A,2026-06-09T05:52:38.434656,1.00272888,.00066851,6.8994,69.2783,1.2026,243.8061,0,U,27380,999,5168,0,-.21E-5,0
DIRECTV 5 (TEMPO 1),2002-023A,2026-06-09T05:58:16.121280,1.00271556,.00033324,4.8566,75.4081,13.1731,148.5099,0,U,27426,999,8804,0,-.41E-6,0
INTELSAT 905 (IS-905),2002-027A,2026-06-08T14:29:28.390848,1.00269870,.00039537,6.7311,69.9025,14.5648,252.6814,0,U,27438,999,5127,0,.109E-5,0
GALAXY 3C (G-3C),2002-030A,2026-06-09T05:31:32.831040,1.00271653,.0001748,3.7096,78.0811,31.9840,135.5822,0,U,27445,999,4641,0,-.136E-5,0
INTELSAT 906 (IS-906),2002-041A,2026-06-09T06:58:38.545824,1.00271320,.00046483,5.7837,73.0175,359.0917,354.3483,0,U,27513,999,8694,0,.29E-6,0
GALAXY 13 (HORIZONS-1),2003-044A,2026-06-09T06:55:51.724704,1.00273678,.00021059,1.3998,83.9552,350.4794,137.1902,0,U,27954,999,4649,0,.149E-5,0
INTELSAT 10-02,2004-022A,2026-06-09T01:21:21.231072,1.00269264,.00005251,0.0151,336.1514,195.6343,104.9809,0,U,28358,999,8047,0,.5E-7,0
DIRECTV 8,2005-019A,2026-06-09T07:40:50.947968,1.00271624,.00029268,0.0175,13.0185,68.6316,172.2124,0,U,28659,999,7699,0,.18E-6,0
GALAXY 28 (G-28),2005-022A,2026-06-09T06:21:53.516736,1.00272300,.00028453,3.2792,79.0283,354.8508,252.1318,0,U,28702,999,5189,0,-.184E-5,0
GALAXY 16 (G-16),2006-023A,2026-06-09T06:01:23.322432,1.00271553,.0002631,0.0286,120.8363,318.2011,169.9426,0,U,29236,999,7289,0,-.11E-5,0
DIRECTV 9S,2006-043A,2026-06-09T06:00:45.881856,1.00271348,.00050043,2.3993,80.9972,7.4431,158.1951,0,U,29494,999,5130,0,-.97E-6,0
GALAXY 17 (G-17),2007-016B,2026-06-09T04:22:39.898272,1.00271395,.00048347,2.9509,80.0007,16.4803,141.7576,0,U,31307,999,6972,0,-.19E-5,0
INTELSAT 11 (IS-11),2007-044B,2026-06-09T05:32:42.975744,0.99053622,.00019237,3.5437,78.7650,84.0830,338.7303,0,U,32253,999,6837,0,-.24E-5,0
HORIZONS-2,2007-063B,2026-06-09T05:41:38.494176,1.00271529,.00039464,2.5806,80.7226,355.9888,192.5479,0,U,32388,999,6773,0,-.237E-5,0
DIRECTV 11,2008-013A,2026-06-09T01:17:09.208320,1.00271306,.00003272,0.0372,171.9066,221.7276,143.9123,0,U,32729,999,4551,0,-.109E-5,0
GALAXY 18 (G-18),2008-024A,2026-06-09T05:54:31.480416,1.00272498,.00031615,0.0163,301.8627,148.0433,133.3525,0,U,32951,999,4577,0,.42E-6,0
INTELSAT 25 (IS-25),2008-034A,2026-06-08T20:58:49.232352,0.99020453,.00019036,2.6860,80.4286,35.5606,254.5892,0,U,33153,999,6560,0,-.246E-5,0
GALAXY 19 (G-19),2008-045A,2026-06-09T01:18:52.541856,1.00271006,.000272,0.0188,273.3735,164.3319,102.4621,0,U,33376,999,6482,0,-.122E-5,0
FM-5,2009-034A,2026-06-09T05:26:52.487232,1.00272193,.00006888,0.0203,287.4291,18.7387,307.0160,0,U,35493,999,4656,0,-.183E-5,0
INTELSAT 14 (IS-14),2009-064A,2026-06-09T06:16:46.508160,1.00270451,.0002763,0.0126,330.6272,124.3879,211.8267,0,U,36097,999,6052,0,-.257E-5,0
INTELSAT 15 (IS-15),2009-067A,2026-06-09T03:28:32.246688,1.00271190,.00022591,0.0168,342.1819,99.8208,312.8096,0,U,36106,999,4114,0,-.168E-5,0
DIRECTV 12,2009-075A,2026-06-09T05:43:43.844160,1.00271603,.0000251,0.0418,135.0314,269.1703,196.6279,0,U,36131,999,4647,0,-.87E-6,0
INTELSAT 16 (IS-16),2010-006A,2026-06-09T05:44:40.958880,1.00269785,.00021377,0.0096,320.6139,135.8794,171.1039,0,U,36397,999,5957,0,-.228E-5,0
XM-5,2010-053A,2026-06-08T23:06:06.518880,1.00270322,.00027236,0.0671,272.7941,285.1463,290.7439,0,U,37185,999,5740,0,-.6E-7,0
INTELSAT 17 (IS-17),2010-065B,2026-06-09T03:23:02.774112,1.00272583,.0002542,0.0058,122.7144,325.7921,285.7737,0,U,37238,999,5316,0,.15E-6,0
INTELSAT 28 (IS-28),2011-016A,2026-06-09T06:20:31.149024,1.00272096,.00037853,1.7847,82.7206,0.5824,237.7648,0,U,37392,999,5320,0,-.208E-5,0
INTELSAT 18 (IS-18),2011-056A,2026-06-09T02:12:49.370112,1.00272262,.00020678,0.0012,354.7032,100.6597,15.3233,0,U,37834,999,5373,0,.7E-6,0
INTELSAT 22 (IS-22),2012-011A,2026-06-09T03:24:47.605824,1.00273409,.00016059,0.0264,67.7528,2.5980,310.4768,0,U,38098,999,710,0,-.42E-6,0
INTELSAT 19 (IS-19),2012-030A,2026-06-09T05:34:20.320032,1.00271944,.00030442,0.0190,333.0915,112.5620,61.5472,0,U,38356,999,5037,0,-.39E-6,0
INTELSAT 20 (IS-20),2012-043A,2026-06-09T04:52:21.398880,1.00273783,.00018655,0.0065,83.3464,89.5561,226.2772,0,U,38740,999,5066,0,-.8E-7,0
